IRIDIUM 150             
1 43257U 18030J   26025.40175028  .00000047  00000+0  98108-5 0  9996
2 43257  86.3992 350.1546 0002245  83.0113 277.1338 14.34217273409696
IRIDIUM 143             
1 43258U 18030K   26025.38272388  .00000502  00000+0  17225-3 0  9996
2 43258  86.3999 350.2493 0002202  79.8431 280.3013 14.34217331409629
IRIDIUM 161             
1 43478U 18047C   26025.41680787  .00000714  00000+0  20638-3 0  9995
2 43478  86.4541 148.1473 0002141 101.6744 258.4698 14.43273560404549
IRIDIUM 152             
1 43479U 18047D   26025.56474897  .00000278  00000+0  92256-4 0  9996
2 43479  86.4016 147.9462 0002142  99.5881 260.5557 14.34215595402045
IRIDIUM 147             
1 43480U 18047E   26025.43154595  .00000463  00000+0  15830-3 0  9992
2 43480  86.4012 148.0037 0001915  95.1406 265.0009 14.34216798402021
IRIDIUM 110             
1 43481U 18047F   26025.36812585  .00000188  00000+0  60027-4 0  9998
2 43481  86.4017 148.1186 0002173 108.1080 252.0353 14.34216903402007
IRIDIUM 162             
1 43482U 18047G   26025.61848447  .00001171  00000+0  34226-3 0  9997
2 43482  86.4538 147.9559 0002375  93.3241 266.8232 14.43276819404569
IRIDIUM 160             
1 43569U 18061A   26025.31395660  .00000221  00000+0  71917-4 0  9994
2 43569  86.3985 116.5537 0002085 101.0864 259.0566 14.34216996392890
