<?xml version="1.0" encoding="UTF-8"?>
<ndm xmlns:xsi="http://www.w3.org/2001/XMLSchema-instance" xsi:noNamespaceSchemaLocation="https://sanaregistry.org/r/ndmxml_unqualified/ndmxml-2.0.0-master-2.0.xsd">
<omm id="CCSDS_OMM_VERS" version="2.0">
<header><CREATION_DATE/><ORIGINATOR/></header><body><segment><metadata><OBJECT_NAME>IRIDIUM 150</OBJECT_NAME><OBJECT_ID>2018-030J</OBJECT_ID><CENTER_NAME>EARTH</CENTER_NAME><REF_FRAME>TEME</REF_FRAME><TIME_SYSTEM>UTC</TIME_SYSTEM><MEAN_ELEMENT_THEORY>SGP4</MEAN_ELEMENT_THEORY></metadata><data><meanElements><EPOCH>2026-01-25T09:38:31.224192</EPOCH><MEAN_MOTION>14.34217273</MEAN_MOTION><ECCENTRICITY>.00022451</ECCENTRICITY><INCLINATION>86.3992</INCLINATION><RA_OF_ASC_NODE>350.1546</RA_OF_ASC_NODE><ARG_OF_PERICENTER>83.0113</ARG_OF_PERICENTER><MEAN_ANOMALY>277.1338</MEAN_ANOMALY></meanElements><tleParameters><EPHEMERIS_TYPE>0</EPHEMERIS_TYPE><CLASSIFICATION_TYPE>U</CLASSIFICATION_TYPE><NORAD_CAT_ID>43257</NORAD_CAT_ID><ELEMENT_SET_NO>999</ELEMENT_SET_NO><REV_AT_EPOCH>40969</REV_AT_EPOCH><BSTAR>.9810777E-5</BSTAR><MEAN_MOTION_DOT>.47E-6</MEAN_MOTION_DOT><MEAN_MOTION_DDOT>0</MEAN_MOTION_DDOT></tleParameters></data></segment></body></omm>
<omm id="CCSDS_OMM_VERS" version="2.0">
<header><CREATION_DATE/><ORIGINATOR/></header><body><segment><metadata><OBJECT_NAME>IRIDIUM 143</OBJECT_NAME><OBJECT_ID>2018-030K</OBJECT_ID><CENTER_NAME>EARTH</CENTER_NAME><REF_FRAME>TEME</REF_FRAME><TIME_SYSTEM>UTC</TIME_SYSTEM><MEAN_ELEMENT_THEORY>SGP4</MEAN_ELEMENT_THEORY></metadata><data><meanElements><EPOCH>2026-01-25T09:11:07.343232</EPOCH><MEAN_MOTION>14.34217331</MEAN_MOTION><ECCENTRICITY>.00022027</ECCENTRICITY><INCLINATION>86.3999</INCLINATION><RA_OF_ASC_NODE>350.2493</RA_OF_ASC_NODE><ARG_OF_PERICENTER>79.8431</ARG_OF_PERICENTER><MEAN_ANOMALY>280.3013</MEAN_ANOMALY></meanElements><tleParameters><EPHEMERIS_TYPE>0</EPHEMERIS_TYPE><CLASSIFICATION_TYPE>U</CLASSIFICATION_TYPE><NORAD_CAT_ID>43258</NORAD_CAT_ID><ELEMENT_SET_NO>999</ELEMENT_SET_NO><REV_AT_EPOCH>40962</REV_AT_EPOCH><BSTAR>.17224769E-3</BSTAR><MEAN_MOTION_DOT>.502E-5</MEAN_MOTION_DOT><MEAN_MOTION_DDOT>0</MEAN_MOTION_DDOT></tleParameters></data></segment></body></omm>
<omm id="CCSDS_OMM_VERS" version="2.0">
<header><CREATION_DATE/><ORIGINATOR/></header><body><segment><metadata><OBJECT_NAME>IRIDIUM 161</OBJECT_NAME><OBJECT_ID>2018-047C</OBJECT_ID><CENTER_NAME>EARTH</CENTER_NAME><REF_FRAME>TEME</REF_FRAME><TIME_SYSTEM>UTC</TIME_SYSTEM><MEAN_ELEMENT_THEORY>SGP4</MEAN_ELEMENT_THEORY></metadata><data><meanElements><EPOCH>2026-01-25T10:00:12.199968</EPOCH><MEAN_MOTION>14.43273560</MEAN_MOTION><ECCENTRICITY>.00021417</ECCENTRICITY><INCLINATION>86.4541</INCLINATION><RA_OF_ASC_NODE>148.1473</RA_OF_ASC_NODE><ARG_OF_PERICENTER>101.6744</ARG_OF_PERICENTER><MEAN_ANOMALY>258.4698</MEAN_ANOMALY></meanElements><tleParameters><EPHEMERIS_TYPE>0</EPHEMERIS_TYPE><CLASSIFICATION_TYPE>U</CLASSIFICATION_TYPE><NORAD_CAT_ID>43478</NORAD_CAT_ID><ELEMENT_SET_NO>999</ELEMENT_SET_NO><REV_AT_EPOCH>40454</REV_AT_EPOCH><BSTAR>.20638493E-3</BSTAR><MEAN_MOTION_DOT>.714E-5</MEAN_MOTION_DOT><MEAN_MOTION_DDOT>0</MEAN_MOTION_DDOT></tleParameters></data></segment></body></omm>
<omm id="CCSDS_OMM_VERS" version="2.0">
<header><CREATION_DATE/><ORIGINATOR/></header><body><segment><metadata><OBJECT_NAME>IRIDIUM 152</OBJECT_NAME><OBJECT_ID>2018-047D</OBJECT_ID><CENTER_NAME>EARTH</CENTER_NAME><REF_FRAME>TEME</REF_FRAME><TIME_SYSTEM>UTC</TIME_SYSTEM><MEAN_ELEMENT_THEORY>SGP4</MEAN_ELEMENT_THEORY></metadata><data><meanElements><EPOCH>2026-01-25T13:33:14.311008</EPOCH><MEAN_MOTION>14.34215595</MEAN_MOTION><ECCENTRICITY>.00021422</ECCENTRICITY><INCLINATION>86.4016</INCLINATION><RA_OF_ASC_NODE>147.9462</RA_OF_ASC_NODE><ARG_OF_PERICENTER>99.5881</ARG_OF_PERICENTER><MEAN_ANOMALY>260.5557</MEAN_ANOMALY></meanElements><tleParameters><EPHEMERIS_TYPE>0</EPHEMERIS_TYPE><CLASSIFICATION_TYPE>U</CLASSIFICATION_TYPE><NORAD_CAT_ID>43479</NORAD_CAT_ID><ELEMENT_SET_NO>999</ELEMENT_SET_NO><REV_AT_EPOCH>40204</REV_AT_EPOCH><BSTAR>.92255747E-4</BSTAR><MEAN_MOTION_DOT>.278E-5</MEAN_MOTION_DOT><MEAN_MOTION_DDOT>0</MEAN_MOTION_DDOT></tleParameters></data></segment></body></omm>
<omm id="CCSDS_OMM_VERS" version="2.0">
<header><CREATION_DATE/><ORIGINATOR/></header><body><segment><metadata><OBJECT_NAME>IRIDIUM 147</OBJECT_NAME><OBJECT_ID>2018-047E</OBJECT_ID><CENTER_NAME>EARTH</CENTER_NAME><REF_FRAME>TEME</REF_FRAME><TIME_SYSTEM>UTC</TIME_SYSTEM><MEAN_ELEMENT_THEORY>SGP4</MEAN_ELEMENT_THEORY></metadata><data><meanElements><EPOCH>2026-01-25T10:21:25.570080</EPOCH><MEAN_MOTION>14.34216798</MEAN_MOTION><ECCENTRICITY>.00019154</ECCENTRICITY><INCLINATION>86.4012</INCLINATION><RA_OF_ASC_NODE>148.0037</RA_OF_ASC_NODE><ARG_OF_PERICENTER>95.1406</ARG_OF_PERICENTER><MEAN_ANOMALY>265.0009</MEAN_ANOMALY></meanElements><tleParameters><EPHEMERIS_TYPE>0</EPHEMERIS_TYPE><CLASSIFICATION_TYPE>U</CLASSIFICATION_TYPE><NORAD_CAT_ID>43480</NORAD_CAT_ID><ELEMENT_SET_NO>999</ELEMENT_SET_NO><REV_AT_EPOCH>40202</REV_AT_EPOCH><BSTAR>.15829734E-3</BSTAR><MEAN_MOTION_DOT>.463E-5</MEAN_MOTION_DOT><MEAN_MOTION_DDOT>0</MEAN_MOTION_DDOT></tleParameters></data></segment></body></omm>
<omm id="CCSDS_OMM_VERS" version="2.0">
<header><CREATION_DATE/><ORIGINATOR/></header><body><segment><metadata><OBJECT_NAME>IRIDIUM 110</OBJECT_NAME><OBJECT_ID>2018-047F</OBJECT_ID><CENTER_NAME>EARTH</CENTER_NAME><REF_FRAME>TEME</REF_FRAME><TIME_SYSTEM>UTC</TIME_SYSTEM><MEAN_ELEMENT_THEORY>SGP4</MEAN_ELEMENT_THEORY></metadata><data><meanElements><EPOCH>2026-01-25T08:50:06.073440</EPOCH><MEAN_MOTION>14.34216903</MEAN_MOTION><ECCENTRICITY>.0002173</ECCENTRICITY><INCLINATION>86.4017</INCLINATION><RA_OF_ASC_NODE>148.1186</RA_OF_ASC_NODE><ARG_OF_PERICENTER>108.1080</ARG_OF_PERICENTER><MEAN_ANOMALY>252.0353</MEAN_ANOMALY></meanElements><tleParameters><EPHEMERIS_TYPE>0</EPHEMERIS_TYPE><CLASSIFICATION_TYPE>U</CLASSIFICATION_TYPE><NORAD_CAT_ID>43481</NORAD_CAT_ID><ELEMENT_SET_NO>999</ELEMENT_SET_NO><REV_AT_EPOCH>40200</REV_AT_EPOCH><BSTAR>.60027477E-4</BSTAR><MEAN_MOTION_DOT>.188E-5</MEAN_MOTION_DOT><MEAN_MOTION_DDOT>0</MEAN_MOTION_DDOT></tleParameters></data></segment></body></omm>
<omm id="CCSDS_OMM_VERS" version="2.0">
<header><CREATION_DATE/><ORIGINATOR/></header><body><segment><metadata><OBJECT_NAME>IRIDIUM 162</OBJECT_NAME><OBJECT_ID>2018-047G</OBJECT_ID><CENTER_NAME>EARTH</CENTER_NAME><REF_FRAME>TEME</REF_FRAME><TIME_SYSTEM>UTC</TIME_SYSTEM><MEAN_ELEMENT_THEORY>SGP4</MEAN_ELEMENT_THEORY></metadata><data><meanElements><EPOCH>2026-01-25T14:50:37.058208</EPOCH><MEAN_MOTION>14.43276819</MEAN_MOTION><ECCENTRICITY>.00023755</ECCENTRICITY><INCLINATION>86.4538</INCLINATION><RA_OF_ASC_NODE>147.9559</RA_OF_ASC_NODE><ARG_OF_PERICENTER>93.3241</ARG_OF_PERICENTER><MEAN_ANOMALY>266.8232</MEAN_ANOMALY></meanElements><tleParameters><EPHEMERIS_TYPE>0</EPHEMERIS_TYPE><CLASSIFICATION_TYPE>U</CLASSIFICATION_TYPE><NORAD_CAT_ID>43482</NORAD_CAT_ID><ELEMENT_SET_NO>999</ELEMENT_SET_NO><REV_AT_EPOCH>40456</REV_AT_EPOCH><BSTAR>.3422551E-3</BSTAR><MEAN_MOTION_DOT>.1171E-4</MEAN_MOTION_DOT><MEAN_MOTION_DDOT>0</MEAN_MOTION_DDOT></tleParameters></data></segment></body></omm>
<omm id="CCSDS_OMM_VERS" version="2.0">
<header><CREATION_DATE/><ORIGINATOR/></header><body><segment><metadata><OBJECT_NAME>IRIDIUM 160</OBJECT_NAME><OBJECT_ID>2018-061A</OBJECT_ID><CENTER_NAME>EARTH</CENTER_NAME><REF_FRAME>TEME</REF_FRAME><TIME_SYSTEM>UTC</TIME_SYSTEM><MEAN_ELEMENT_THEORY>SGP4</MEAN_ELEMENT_THEORY></metadata><data><meanElements><EPOCH>2026-01-25T07:32:05.850240</EPOCH><MEAN_MOTION>14.34216996</MEAN_MOTION><ECCENTRICITY>.00020851</ECCENTRICITY><INCLINATION>86.3985</INCLINATION><RA_OF_ASC_NODE>116.5537</RA_OF_ASC_NODE><ARG_OF_PERICENTER>101.0864</ARG_OF_PERICENTER><MEAN_ANOMALY>259.0566</MEAN_ANOMALY></meanElements><tleParameters><EPHEMERIS_TYPE>0</EPHEMERIS_TYPE><CLASSIFICATION_TYPE>U</CLASSIFICATION_TYPE><NORAD_CAT_ID>43569</NORAD_CAT_ID><ELEMENT_SET_NO>999</ELEMENT_SET_NO><REV_AT_EPOCH>39289</REV_AT_EPOCH><BSTAR>.7191679E-4</BSTAR><MEAN_MOTION_DOT>.221E-5</MEAN_MOTION_DOT><MEAN_MOTION_DDOT>0</MEAN_MOTION_DDOT></tleParameters></data></segment></body></omm>

</ndm>
